TISAT 1                 
1 36799U 10035E   26068.75703561  .00024554  00000+0  91005-3 0  9996
2 36799  98.0645   6.8512 0001343 159.3030 200.8262 15.27628633852505
STARLINK-34126          
1 64083U 25107V   26068.40115591  .00025398  00000+0  92824-3 0  9998
2 64083  42.9998 203.4065 0001550 276.3985  83.6690 15.27616604 44980
